{
    "links": {
        "self": "http://www.neowsapp.com/rest/v1/neo/3774734?api_key=iIulBulltgU6a56xZRHN4H3l9WmuAYTsLGpBGhQ2"
    },
    "id": "3774734",
    "neo_reference_id": "3774734",
    "name": "(2017 KF5)",
    "designation": "2017 KF5",
    "nasa_jpl_url": "http://ssd.jpl.nasa.gov/sbdb.cgi?sstr=3774734",
    "absolute_magnitude_h": 22.4,
    "estimated_diameter": {
        "kilometers": {
            "estimated_diameter_min": 0.0880146521,
            "estimated_diameter_max": 0.1968067451
        },
        "meters": {
            "estimated_diameter_min": 88.0146520901,
            "estimated_diameter_max": 196.8067450894
        },
        "miles": {
            "estimated_diameter_min": 0.0546897524,
            "estimated_diameter_max": 0.122290004
        },
        "feet": {
            "estimated_diameter_min": 288.7619911632,
            "estimated_diameter_max": 645.6914415591
        }
    },
    "is_potentially_hazardous_asteroid": false,
    "close_approach_data": [
        {
            "close_approach_date": "2013-05-10",
            "close_approach_date_full": "2013-May-10 17:21",
            "epoch_date_close_approach": 1368206460000,
            "relative_velocity": {
                "kilometers_per_second": "29.5112563249",
                "kilometers_per_hour": "106240.5227695345",
                "miles_per_hour": "66013.7292731033"
            },
            "miss_distance": {
                "astronomical": "0.3850057736",
                "lunar": "149.7672459304",
                "kilometers": "57596043.668262232",
                "miles": "35788521.9996415216"
            },
            "orbiting_body": "Earth"
        },
        {
            "close_approach_date": "2014-12-28",
            "close_approach_date_full": "2014-Dec-28 03:25",
            "epoch_date_close_approach": 1419737100000,
            "relative_velocity": {
                "kilometers_per_second": "32.5574195113",
                "kilometers_per_hour": "117206.710240599",
                "miles_per_hour": "72827.6917047766"
            },
            "miss_distance": {
                "astronomical": "0.4824338528",
                "lunar": "187.6667687392",
                "kilometers": "72171076.794773536",
                "miles": "44845027.6287093568"
            },
            "orbiting_body": "Earth"
        },
        {
            "close_approach_date": "2017-05-29",
            "close_approach_date_full": "2017-May-29 17:01",
            "epoch_date_close_approach": 1496077260000,
            "relative_velocity": {
                "kilometers_per_second": "16.9959063903",
                "kilometers_per_hour": "61185.2630052413",
                "miles_per_hour": "38018.1430045623"
            },
            "miss_distance": {
                "astronomical": "0.1558341397",
                "lunar": "60.6194803433",
                "kilometers": "23312455.372402439",
                "miles": "14485688.0581300982"
            },
            "orbiting_body": "Earth"
        }
    ],
    "orbital_data": {
        "orbit_id": "5",
        "orbit_determination_date": "2017-06-06 06:20:13",
        "first_observation_date": "2017-05-23",
        "last_observation_date": "2017-05-30",
        "data_arc_in_days": 7,
        "observations_used": 54,
        "orbit_uncertainty": "8",
        "minimum_orbit_intersection": ".0598375",
        "jupiter_tisserand_invariant": "4.992",
        "epoch_osculation": "2457902.5",
        "eccentricity": ".4807471792642373",
        "semi_major_axis": "1.229174579548202",
        "inclination": "27.08253687081208",
        "ascending_node_longitude": "239.2602476125704",
        "orbital_period": "497.7586111294705",
        "perihelion_distance": ".6382523676070992",
        "perihelion_argument": "107.7475985087047",
        "aphelion_distance": "1.820096791489305",
        "perihelion_time": "2457971.659905639847",
        "mean_anomaly": "309.9806422758824",
        "mean_motion": ".723242133738519",
        "equinox": "J2000",
        "orbit_class": {
            "orbit_class_type": "APO",
            "orbit_class_description": "Near-Earth asteroid orbits which cross the Earth’s orbit similar to that of 1862 Apollo",
            "orbit_class_range": "a (semi-major axis) > 1.0 AU; q (perihelion) < 1.017 AU"
        }
    },
    "is_sentry_object": false
}